ONEWEB-0520             
1 54138U 22138AB  24172.50170389  .00000059  00000+0  11505-3 0  9994
2 54138  87.9151  89.5731 0002592  79.9143 280.2282 13.19725425 80975
ONEWEB-0521             
1 54139U 22138AC  24172.30742198 -.00000721  00000+0 -18329-2 0  9994
2 54139  87.9149  89.6046 0001870  85.3445 274.7901 13.19730123 80895
ONEWEB-0522             
1 54140U 22138AD  24172.51434256  .00000004  00000+0 -21974-4 0  9997
2 54140  87.9149  89.5653 0002158  76.9368 283.2005 13.19726507 80969
ONEWEB-0523             
1 54141U 22138AE  24172.59860216  .00000035  00000+0  53743-4 0  9997
2 54141  87.9213  59.0022 0001006  70.2298 289.8944 13.20774368 83398
ONEWEB-0524             
1 54142U 22138AF  24172.58757118 -.00000033  00000+0 -11184-3 0  9995
2 54142  87.9213  59.0079 0001935  45.5804 314.5487 13.20772488 83399
ONEWEB-0525             
1 54143U 22138AG  24172.30584302  .00000051  00000+0  94741-4 0  9998
2 54143  87.9153  89.6157 0002386  80.1484 279.9918 13.19726449 80955
ONEWEB-0526             
1 54144U 22138AH  24172.49065216  .00000045  00000+0  81205-4 0  9991
2 54144  87.9149  89.5741 0002166  76.6654 283.4720 13.19725615 80959
ONEWEB-0529             
1 54145U 22138AJ  24172.49379050 -.00000070  00000+0 -20692-3 0  9998
2 54145  87.9157  89.5887 0002428  78.2955 281.8450 13.19724488 80974
